{
    "links": {
        "self": "http://www.neowsapp.com/rest/v1/neo/3797708?api_key=iIulBulltgU6a56xZRHN4H3l9WmuAYTsLGpBGhQ2"
    },
    "id": "3797708",
    "neo_reference_id": "3797708",
    "name": "(2018 BR)",
    "designation": "2018 BR",
    "nasa_jpl_url": "http://ssd.jpl.nasa.gov/sbdb.cgi?sstr=3797708",
    "absolute_magnitude_h": 22.9,
    "estimated_diameter": {
        "kilometers": {
            "estimated_diameter_min": 0.0699125232,
            "estimated_diameter_max": 0.1563291544
        },
        "meters": {
            "estimated_diameter_min": 69.9125232246,
            "estimated_diameter_max": 156.3291544087
        },
        "miles": {
            "estimated_diameter_min": 0.0434416145,
            "estimated_diameter_max": 0.097138403
        },
        "feet": {
            "estimated_diameter_min": 229.3718026961,
            "estimated_diameter_max": 512.8909429502
        }
    },
    "is_potentially_hazardous_asteroid": false,
    "close_approach_data": [
        {
            "close_approach_date": "2017-12-23",
            "close_approach_date_full": "2017-Dec-23 09:16",
            "epoch_date_close_approach": 1514020560000,
            "relative_velocity": {
                "kilometers_per_second": "7.7495537933",
                "kilometers_per_hour": "27898.3936559694",
                "miles_per_hour": "17334.9768802883"
            },
            "miss_distance": {
                "astronomical": "0.2159544285",
                "lunar": "84.0062726865",
                "kilometers": "32306322.520667295",
                "miles": "20074217.960486871"
            },
            "orbiting_body": "Earth"
        },
        {
            "close_approach_date": "2172-10-25",
            "close_approach_date_full": "2172-Oct-25 11:46",
            "epoch_date_close_approach": 6400295160000,
            "relative_velocity": {
                "kilometers_per_second": "13.735624276",
                "kilometers_per_hour": "49448.2473935575",
                "miles_per_hour": "30725.217942958"
            },
            "miss_distance": {
                "astronomical": "0.3271879908",
                "lunar": "127.2761284212",
                "kilometers": "48946626.513259596",
                "miles": "30414023.3983345848"
            },
            "orbiting_body": "Earth"
        }
    ],
    "orbital_data": {
        "orbit_id": "4",
        "orbit_determination_date": "2018-01-25 06:54:32",
        "first_observation_date": "2018-01-16",
        "last_observation_date": "2018-01-24",
        "data_arc_in_days": 8,
        "observations_used": 31,
        "orbit_uncertainty": "8",
        "minimum_orbit_intersection": ".158623",
        "jupiter_tisserand_invariant": "3.781",
        "epoch_osculation": "2458135.5",
        "eccentricity": ".4490746238000858",
        "semi_major_axis": "1.922337601282152",
        "inclination": "8.624979146908073",
        "ascending_node_longitude": "173.4637391695581",
        "orbital_period": "973.5156067516174",
        "perihelion_distance": "1.05906456616961",
        "perihelion_argument": "257.7115032307977",
        "aphelion_distance": "2.785610636394693",
        "perihelion_time": "2458098.666658391929",
        "mean_anomaly": "13.62074001376407",
        "mean_motion": ".3697937634520638",
        "equinox": "J2000",
        "orbit_class": {
            "orbit_class_type": "AMO",
            "orbit_class_description": "Near-Earth asteroid orbits similar to that of 1221 Amor",
            "orbit_class_range": "1.017 AU < q (perihelion) < 1.3 AU"
        }
    },
    "is_sentry_object": false
}